LKW-3                   
1 43146U 18006A   26068.98320302  .00013518  00000+0  42518-3 0  9992
2 43146  97.6481 225.9034 0002250 308.1480  51.9559 15.33087407453502
SITRO-AIS 11 (SHEFFER)  
1 57208U 23091AU  26068.92795235  .00024521  00000+0  72300-3 0  9999
2 57208  97.5188 137.7379 0007878  69.8129 290.3960 15.34976359149548
